[{"OBJECT_NAME":"STARLINK-6045","OBJECT_ID":"2023-064Q","EPOCH":"2026-03-09T19:14:19.593888","MEAN_MOTION":14.98336196,"ECCENTRICITY":0.00034305,"INCLINATION":69.9997,"RA_OF_ASC_NODE":103.9741,"ARG_OF_PERICENTER":270.779,"MEAN_ANOMALY":89.2976,"EPHEMERIS_TYPE":0,"CLASSIFICATION_TYPE":"U","NORAD_CAT_ID":56462,"ELEMENT_SET_NO":999,"REV_AT_EPOCH":15625,"BSTAR":-4.633554e-5,"MEAN_MOTION_DOT":-6.46e-6,"MEAN_MOTION_DDOT":0},{"OBJECT_NAME":"CZ-4C DEB","OBJECT_ID":"2015-069D","EPOCH":"2026-03-09T14:03:55.988352","MEAN_MOTION":14.76537169,"ECCENTRICITY":0.0113533,"INCLINATION":97.7994,"RA_OF_ASC_NODE":293.1388,"ARG_OF_PERICENTER":335.1928,"MEAN_ANOMALY":24.3848,"EPHEMERIS_TYPE":0,"CLASSIFICATION_TYPE":"U","NORAD_CAT_ID":42671,"ELEMENT_SET_NO":999,"REV_AT_EPOCH":54179,"BSTAR":0.00082265,"MEAN_MOTION_DOT":6.325e-5,"MEAN_MOTION_DDOT":0}]
